{"spkid": "54505729", "covariance": {"labels": ["e", "q", "tp", "node", "peri", "i"], "data": [["4.465287242065482E-13", "-4.125004800519094E-13", "2.802530664168649E-13", "1.30900863033585E-12", "-3.630015189340797E-11", "1.077240822142078E-11"], ["-4.125004800519094E-13", "3.813879524424176E-13", "-1.22232583745444E-12", "-1.237452665039401E-12", "3.280405330767426E-11", "-9.895923587774721E-12"], ["2.802530664168649E-13", "-1.22232583745444E-12", "3.857408626111307E-9", "9.955072337128612E-11", "2.934705879074962E-9", "-2.042033040289007E-10"], ["1.30900863033585E-12", "-1.237452665039401E-12", "9.955072337128612E-11", "1.363590469527762E-9", "-1.383671823331794E-9", "2.469142292880988E-10"], ["-3.630015189340797E-11", "3.280405330767426E-11", "2.934705879074962E-9", "-1.383671823331794E-9", "6.570746668857313E-9", "-1.257543968665602E-9"], ["1.077240822142078E-11", "-9.895923587774721E-12", "-2.042033040289007E-10", "2.469142292880988E-10", "-1.257543968665602E-9", "3.31302101073673E-10"]], "elements": [{"label": "e", "units": null, "title": "eccentricity", "value": ".1582880040645458", "sigma": 6.68228048054366e-07, "name": "e"}, {"label": "q", "sigma": 6.175661522804e-07, "name": "q", "units": "au", "value": ".8544247623762146", "title": "perihelion distance"}, {"sigma": 6.2108039947428e-05, "name": "tp", "title": "time of perihelion passage", "value": "2460535.144903337420", "units": "TDB", "label": "tp"}, {"units": "deg", "title": "longitude of the ascending node", "value": "239.0238806103097", "name": "om", "sigma": 3.69268258794032e-05, "label": "node"}, {"name": "w", "sigma": 8.10601422948252e-05, "value": "67.38217054369163", "title": "argument of perihelion", "units": "deg", "label": "peri"}, {"label": "i", "title": "inclination", "value": "4.263043714335446", "units": "deg", "name": "i", "sigma": 1.82017059934961e-05}], "epoch": "2460496.5"}, "elements": [{"label": "e", "name": "e", "sigma": "6.6959E-7", "units": null, "title": "eccentricity", "value": ".1582275883763286"}, {"label": "a", "name": "a", "sigma": "7.4422E-8", "units": "au", "value": "1.015177700379482", "title": "semi-major axis"}, {"units": "au", "title": "perihelion distance", "value": ".8545485810750091", "name": "q", "sigma": "6.2036E-7", "label": "q"}, {"title": "inclination; angle with respect to x-y ecliptic plane", "value": "4.275142929252952", "units": "deg", "name": "i", "sigma": "1.8083E-5", "label": "i"}, {"label": "node", "value": "238.8699281237489", "title": "longitude of the ascending node", "units": "deg", "sigma": "3.7067E-5", "name": "om"}, {"label": "peri", "sigma": "8.063E-5", "name": "w", "units": "deg", "title": "argument of perihelion", "value": "67.40769739230095"}, {"label": "M", "title": "mean anomaly", "value": "281.6523841125609", "units": "deg", "sigma": "8.403E-5", "name": "ma"}, {"title": "time of perihelion passage", "value": "2461281.808287780692", "units": "TDB", "sigma": "9.3839E-5", "name": "tp", "label": "tp"}, {"label": "period", "name": "per", "sigma": "4.1083E-5", "title": "sidereal orbital period", "value": "373.6040116792103", "units": "d"}, {"value": ".9635870835057008", "title": "mean motion", "units": "deg/d", "sigma": "1.0596E-7", "name": "n", "label": "n"}, {"label": "Q", "name": "ad", "sigma": "8.6197E-8", "units": "au", "title": "aphelion distance", "value": "1.175806819683954"}], "epoch": "2461200.5"}